{
    "links": {
        "self": "http://www.neowsapp.com/rest/v1/neo/3740848?api_key=iIulBulltgU6a56xZRHN4H3l9WmuAYTsLGpBGhQ2"
    },
    "id": "3740848",
    "neo_reference_id": "3740848",
    "name": "(2016 AW193)",
    "designation": "2016 AW193",
    "nasa_jpl_url": "http://ssd.jpl.nasa.gov/sbdb.cgi?sstr=3740848",
    "absolute_magnitude_h": 25.0,
    "estimated_diameter": {
        "kilometers": {
            "estimated_diameter_min": 0.02658,
            "estimated_diameter_max": 0.0594346868
        },
        "meters": {
            "estimated_diameter_min": 26.58,
            "estimated_diameter_max": 59.4346868419
        },
        "miles": {
            "estimated_diameter_min": 0.0165160412,
            "estimated_diameter_max": 0.0369309908
        },
        "feet": {
            "estimated_diameter_min": 87.2047272,
            "estimated_diameter_max": 194.9956979785
        }
    },
    "is_potentially_hazardous_asteroid": false,
    "close_approach_data": [
        {
            "close_approach_date": "1933-08-19",
            "close_approach_date_full": "1933-Aug-19 03:40",
            "epoch_date_close_approach": -1147724400000,
            "relative_velocity": {
                "kilometers_per_second": "21.9166184962",
                "kilometers_per_hour": "78899.8265861774",
                "miles_per_hour": "49025.2839140612"
            },
            "miss_distance": {
                "astronomical": "0.34182649",
                "lunar": "132.97050461",
                "kilometers": "51136514.8135763",
                "miles": "31774756.89010094"
            },
            "orbiting_body": "Earth"
        },
        {
            "close_approach_date": "2005-01-16",
            "close_approach_date_full": "2005-Jan-16 01:44",
            "epoch_date_close_approach": 1105839840000,
            "relative_velocity": {
                "kilometers_per_second": "21.2278377226",
                "kilometers_per_hour": "76420.2158013146",
                "miles_per_hour": "47484.5502016558"
            },
            "miss_distance": {
                "astronomical": "0.2785143023",
                "lunar": "108.3420635947",
                "kilometers": "41665146.388616101",
                "miles": "25889521.4528241538"
            },
            "orbiting_body": "Earth"
        },
        {
            "close_approach_date": "2015-12-25",
            "close_approach_date_full": "2015-Dec-25 00:44",
            "epoch_date_close_approach": 1451004240000,
            "relative_velocity": {
                "kilometers_per_second": "12.2886051579",
                "kilometers_per_hour": "44238.9785686171",
                "miles_per_hour": "27488.3808778166"
            },
            "miss_distance": {
                "astronomical": "0.032220789",
                "lunar": "12.533886921",
                "kilometers": "4820161.40411943",
                "miles": "2995109.411450934"
            },
            "orbiting_body": "Earth"
        }
    ],
    "orbital_data": {
        "orbit_id": "6",
        "orbit_determination_date": "2017-04-06 08:29:01",
        "first_observation_date": "2016-01-04",
        "last_observation_date": "2016-02-09",
        "data_arc_in_days": 36,
        "observations_used": 13,
        "orbit_uncertainty": "7",
        "minimum_orbit_intersection": ".00550544",
        "jupiter_tisserand_invariant": "3.665",
        "epoch_osculation": "2459000.5",
        "eccentricity": ".563629629289956",
        "semi_major_axis": "1.953793389212532",
        "inclination": "8.356986519591086",
        "ascending_node_longitude": "278.5208804272964",
        "orbital_period": "997.5079843135622",
        "perihelion_distance": ".8525775455415061",
        "perihelion_argument": "126.7598509449015",
        "aphelion_distance": "3.055009232883558",
        "perihelion_time": "2459342.124657794404",
        "mean_anomaly": "236.7078772902075",
        "mean_motion": ".3608993668834991",
        "equinox": "J2000",
        "orbit_class": {
            "orbit_class_type": "APO",
            "orbit_class_description": "Near-Earth asteroid orbits which cross the Earth’s orbit similar to that of 1862 Apollo",
            "orbit_class_range": "a (semi-major axis) > 1.0 AU; q (perihelion) < 1.017 AU"
        }
    },
    "is_sentry_object": false
}